CELESTIS-02             
1 25160U 98007D   22344.45821278  .00000028  00000+0  70022-4 0  9994
2 25160 107.9846 261.1874 0062032 170.7207 286.7734 14.21669728288097
CELESTIS-03             
1 26034U 99070C   22343.86437523  .00025894  00000+0  10075-2 0  9994
2 26034  98.3017   8.0583 0006889 247.8217 112.2288 15.25986643247760
